[{"OBJECT_NAME":"ISS (ZARYA)","OBJECT_ID":"1998-067A","EPOCH":"2026-03-21T20:09:59.780736","MEAN_MOTION":15.48434052,"ECCENTRICITY":0.00061781,"INCLINATION":51.6344,"RA_OF_ASC_NODE":12.294,"ARG_OF_PERICENTER":217.6452,"MEAN_ANOMALY":142.4104,"EPHEMERIS_TYPE":0,"CLASSIFICATION_TYPE":"U","NORAD_CAT_ID":25544,"ELEMENT_SET_NO":999,"REV_AT_EPOCH":55821,"BSTAR":0.00028909851,"MEAN_MOTION_DOT":0.00015204,"MEAN_MOTION_DDOT":0},{"OBJECT_NAME":"POISK","OBJECT_ID":"2009-060A","EPOCH":"2026-03-21T20:09:59.780736","MEAN_MOTION":15.48434052,"ECCENTRICITY":0.00061781,"INCLINATION":51.6344,"RA_OF_ASC_NODE":12.294,"ARG_OF_PERICENTER":217.6452,"MEAN_ANOMALY":142.4104,"EPHEMERIS_TYPE":0,"CLASSIFICATION_TYPE":"U","NORAD_CAT_ID":36086,"ELEMENT_SET_NO":999,"REV_AT_EPOCH":55743,"BSTAR":0.00028909851,"MEAN_MOTION_DOT":0.00015204,"MEAN_MOTION_DDOT":0},{"OBJECT_NAME":"CSS (TIANHE)","OBJECT_ID":"2021-035A","EPOCH":"2026-03-21T20:54:55.141056","MEAN_MOTION":15.61285999,"ECCENTRICITY":0.00053122,"INCLINATION":41.466,"RA_OF_ASC_NODE":134.0045,"ARG_OF_PERICENTER":350.4571,"MEAN_ANOMALY":9.6167,"EPHEMERIS_TYPE":0,"CLASSIFICATION_TYPE":"U","NORAD_CAT_ID":48274,"ELEMENT_SET_NO":999,"REV_AT_EPOCH":27951,"BSTAR":0.00032507415,"MEAN_MOTION_DOT":0.00028184,"MEAN_MOTION_DDOT":0},{"OBJECT_NAME":"ISS (NAUKA)","OBJECT_ID":"2021-066A","EPOCH":"2026-03-21T20:09:59.780736","MEAN_MOTION":15.48434052,"ECCENTRICITY":0.00061781,"INCLINATION":51.6344,"RA_OF_ASC_NODE":12.294,"ARG_OF_PERICENTER":217.6452,"MEAN_ANOMALY":142.4104,"EPHEMERIS_TYPE":0,"CLASSIFICATION_TYPE":"U","NORAD_CAT_ID":49044,"ELEMENT_SET_NO":999,"REV_AT_EPOCH":55747,"BSTAR":0.00028909851,"MEAN_MOTION_DOT":0.00015204,"MEAN_MOTION_DDOT":0},{"OBJECT_NAME":"FREGAT DEB","OBJECT_ID":"2011-037PF","EPOCH":"2026-03-21T16:34:03.458784","MEAN_MOTION":12.4056686,"ECCENTRICITY":0.09637722,"INCLINATION":51.6475,"RA_OF_ASC_NODE":264.7257,"ARG_OF_PERICENTER":86.8825,"MEAN_ANOMALY":284.1699,"EPHEMERIS_TYPE":0,"CLASSIFICATION_TYPE":"U","NORAD_CAT_ID":49271,"ELEMENT_SET_NO":999,"REV_AT_EPOCH":21418,"BSTAR":0.024932939,"MEAN_MOTION_DOT":0.0001769,"MEAN_MOTION_DDOT":0},{"OBJECT_NAME":"CSS (WENTIAN)","OBJECT_ID":"2022-085A","EPOCH":"2026-03-21T20:54:55.141056","MEAN_MOTION":15.61285999,"ECCENTRICITY":0.00053122,"INCLINATION":41.466,"RA_OF_ASC_NODE":134.0045,"ARG_OF_PERICENTER":350.4571,"MEAN_ANOMALY":9.6167,"EPHEMERIS_TYPE":0,"CLASSIFICATION_TYPE":"U","NORAD_CAT_ID":53239,"ELEMENT_SET_NO":999,"REV_AT_EPOCH":27910,"BSTAR":0.00032507415,"MEAN_MOTION_DOT":0.00028184,"MEAN_MOTION_DDOT":0},{"OBJECT_NAME":"CSS (MENGTIAN)","OBJECT_ID":"2022-143A","EPOCH":"2026-03-21T20:54:55.141056","MEAN_MOTION":15.61285999,"ECCENTRICITY":0.00053122,"INCLINATION":41.466,"RA_OF_ASC_NODE":134.0045,"ARG_OF_PERICENTER":350.4571,"MEAN_ANOMALY":9.6167,"EPHEMERIS_TYPE":0,"CLASSIFICATION_TYPE":"U","NORAD_CAT_ID":54216,"ELEMENT_SET_NO":999,"REV_AT_EPOCH":27910,"BSTAR":0.00032507415,"MEAN_MOTION_DOT":0.00028184,"MEAN_MOTION_DDOT":0},{"OBJECT_NAME":"TIANZHOU-9","OBJECT_ID":"2025-149A","EPOCH":"2026-03-21T20:54:55.141056","MEAN_MOTION":15.61285999,"ECCENTRICITY":0.00053122,"INCLINATION":41.466,"RA_OF_ASC_NODE":134.0045,"ARG_OF_PERICENTER":350.4571,"MEAN_ANOMALY":9.6167,"EPHEMERIS_TYPE":0,"CLASSIFICATION_TYPE":"U","NORAD_CAT_ID":64786,"ELEMENT_SET_NO":999,"REV_AT_EPOCH":27910,"BSTAR":0.00032507415,"MEAN_MOTION_DOT":0.00028184,"MEAN_MOTION_DDOT":0},{"OBJECT_NAME":"PROGRESS-MS 32","OBJECT_ID":"2025-204A","EPOCH":"2026-03-21T20:09:59.780736","MEAN_MOTION":15.48434052,"ECCENTRICITY":0.00061781,"INCLINATION":51.6344,"RA_OF_ASC_NODE":12.294,"ARG_OF_PERICENTER":217.6452,"MEAN_ANOMALY":142.4104,"EPHEMERIS_TYPE":0,"CLASSIFICATION_TYPE":"U","NORAD_CAT_ID":65586,"ELEMENT_SET_NO":999,"REV_AT_EPOCH":55450,"BSTAR":0.00028909851,"MEAN_MOTION_DOT":0.00015204,"MEAN_MOTION_DDOT":0},{"OBJECT_NAME":"YOTSUBA-KULOVER","OBJECT_ID":"1998-067XN","EPOCH":"2026-03-21T18:14:01.445280","MEAN_MOTION":15.86483038,"ECCENTRICITY":0.00050454,"INCLINATION":51.6205,"RA_OF_ASC_NODE":354.4175,"ARG_OF_PERICENTER":157.6592,"MEAN_ANOMALY":202.4633,"EPHEMERIS_TYPE":0,"CLASSIFICATION_TYPE":"U","NORAD_CAT_ID":65941,"ELEMENT_SET_NO":999,"REV_AT_EPOCH":2541,"BSTAR":0.0013750727,"MEAN_MOTION_DOT":0.00369564,"MEAN_MOTION_DDOT":0},{"OBJECT_NAME":"BOTAN","OBJECT_ID":"1998-067XQ","EPOCH":"2026-03-21T18:25:29.737920","MEAN_MOTION":15.85890398,"ECCENTRICITY":0.00057285,"INCLINATION":51.6235,"RA_OF_ASC_NODE":354.4926,"ARG_OF_PERICENTER":158.9321,"MEAN_ANOMALY":201.192,"EPHEMERIS_TYPE":0,"CLASSIFICATION_TYPE":"U","NORAD_CAT_ID":65943,"ELEMENT_SET_NO":999,"REV_AT_EPOCH":2541,"BSTAR":0.0013285395,"MEAN_MOTION_DOT":0.00346024,"MEAN_MOTION_DDOT":0},{"OBJECT_NAME":"HRC MONOBLOCK CAMERA","OBJECT_ID":"1998-067XR","EPOCH":"2026-03-21T18:51:01.532160","MEAN_MOTION":15.6346187,"ECCENTRICITY":0.00038506,"INCLINATION":51.6299,"RA_OF_ASC_NODE":4.4268,"ARG_OF_PERICENTER":148.2541,"MEAN_ANOMALY":211.8686,"EPHEMERIS_TYPE":0,"CLASSIFICATION_TYPE":"U","NORAD_CAT_ID":66052,"ELEMENT_SET_NO":999,"REV_AT_EPOCH":2428,"BSTAR":0.00070294589,"MEAN_MOTION_DOT":0.00066284,"MEAN_MOTION_DDOT":0},{"OBJECT_NAME":"HTV-X1","OBJECT_ID":"2025-241A","EPOCH":"2026-03-14T08:15:41.718240","MEAN_MOTION":15.22910005,"ECCENTRICITY":0.00057324,"INCLINATION":51.6357,"RA_OF_ASC_NODE":50.71,"ARG_OF_PERICENTER":187.3443,"MEAN_ANOMALY":172.7451,"EPHEMERIS_TYPE":0,"CLASSIFICATION_TYPE":"U","NORAD_CAT_ID":66174,"ELEMENT_SET_NO":999,"REV_AT_EPOCH":2166,"BSTAR":0.0005679389,"MEAN_MOTION_DOT":0.00013198,"MEAN_MOTION_DDOT":0},{"OBJECT_NAME":"SZ-21 MODULE","OBJECT_ID":"2025-246C","EPOCH":"2026-03-21T20:22:02.555616","MEAN_MOTION":15.69453239,"ECCENTRICITY":5.056e-5,"INCLINATION":41.4733,"RA_OF_ASC_NODE":128.4589,"ARG_OF_PERICENTER":233.4003,"MEAN_ANOMALY":126.6793,"EPHEMERIS_TYPE":0,"CLASSIFICATION_TYPE":"U","NORAD_CAT_ID":66515,"ELEMENT_SET_NO":999,"REV_AT_EPOCH":1998,"BSTAR":0.00036504589,"MEAN_MOTION_DOT":0.00044117,"MEAN_MOTION_DDOT":0},{"OBJECT_NAME":"SHENZHOU-22","OBJECT_ID":"2025-272A","EPOCH":"2026-03-21T20:54:55.141056","MEAN_MOTION":15.61285999,"ECCENTRICITY":0.00053122,"INCLINATION":41.466,"RA_OF_ASC_NODE":134.0045,"ARG_OF_PERICENTER":350.4571,"MEAN_ANOMALY":9.6167,"EPHEMERIS_TYPE":0,"CLASSIFICATION_TYPE":"U","NORAD_CAT_ID":66645,"ELEMENT_SET_NO":999,"REV_AT_EPOCH":27910,"BSTAR":0.00032507415,"MEAN_MOTION_DOT":0.00028184,"MEAN_MOTION_DDOT":0},{"OBJECT_NAME":"SOYUZ-MS 28","OBJECT_ID":"2025-275A","EPOCH":"2026-03-21T20:09:59.780736","MEAN_MOTION":15.48434052,"ECCENTRICITY":0.00061781,"INCLINATION":51.6344,"RA_OF_ASC_NODE":12.294,"ARG_OF_PERICENTER":217.6452,"MEAN_ANOMALY":142.4104,"EPHEMERIS_TYPE":0,"CLASSIFICATION_TYPE":"U","NORAD_CAT_ID":66664,"ELEMENT_SET_NO":999,"REV_AT_EPOCH":55771,"BSTAR":0.00028909851,"MEAN_MOTION_DOT":0.00015204,"MEAN_MOTION_DDOT":0}]
