ISS (ZARYA)             
1 25544U 98067A   26080.84027524  .00015204  00000+0  28910-3 0  9992
2 25544  51.6344  12.2940 0006178 217.6452 142.4104 15.48434052558215
POISK                   
1 36086U 09060A   26080.84027524  .00015204  00000+0  28910-3 0  9990
2 36086  51.6344  12.2940 0006178 217.6452 142.4104 15.48434052557431
CSS (TIANHE)            
1 48274U 21035A   26080.87147154  .00028184  00000+0  32507-3 0  9991
2 48274  41.4660 134.0045 0005312 350.4571   9.6167 15.61285999279519
ISS (NAUKA)             
1 49044U 21066A   26080.84027524  .00015204  00000+0  28910-3 0  9998
2 49044  51.6344  12.2940 0006178 217.6452 142.4104 15.48434052557473
FREGAT DEB              
1 49271U 11037PF  26080.69031781  .00017690  00000+0  24933-1 0  9990
2 49271  51.6475 264.7257 0963772  86.8825 284.1699 12.40566860214180
CSS (WENTIAN)           
1 53239U 22085A   26080.87147154  .00028184  00000+0  32507-3 0  9994
2 53239  41.4660 134.0045 0005312 350.4571   9.6167 15.61285999279101
CSS (MENGTIAN)          
1 54216U 22143A   26080.87147154  .00028184  00000+0  32507-3 0  9995
2 54216  41.4660 134.0045 0005312 350.4571   9.6167 15.61285999279107
TIANZHOU-9              
1 64786U 25149A   26080.87147154  .00028184  00000+0  32507-3 0  9997
2 64786  41.4660 134.0045 0005312 350.4571   9.6167 15.61285999279100
PROGRESS-MS 32          
1 65586U 25204A   26080.84027524  .00015204  00000+0  28910-3 0  9995
2 65586  51.6344  12.2940 0006178 217.6452 142.4104 15.48434052554503
YOTSUBA-KULOVER         
1 65941U 98067XN  26080.75973895  .00369564  00000+0  13751-2 0  9995
2 65941  51.6205 354.4175 0005045 157.6592 202.4633 15.86483038 25412
BOTAN                   
1 65943U 98067XQ  26080.76770530  .00346024  00000+0  13285-2 0  9997
2 65943  51.6235 354.4926 0005728 158.9321 201.1920 15.85890398 25418
HRC MONOBLOCK CAMERA    
1 66052U 98067XR  26080.78543440  .00066284  00000+0  70295-3 0  9991
2 66052  51.6299   4.4268 0003850 148.2541 211.8686 15.63461870 24287
HTV-X1                  
1 66174U 25241A   26073.34423285  .00013198  00000+0  56794-3 0  9992
2 66174  51.6357  50.7100 0005732 187.3443 172.7451 15.22910005 21660
SZ-21 MODULE            
1 66515U 25246C   26080.84864069  .00044117  00000+0  36505-3 0  9991
2 66515  41.4733 128.4589 0000505 233.4003 126.6793 15.69453239 19987
SHENZHOU-22             
1 66645U 25272A   26080.87147154  .00028184  00000+0  32507-3 0  9990
2 66645  41.4660 134.0045 0005312 350.4571   9.6167 15.61285999279106
SOYUZ-MS 28             
1 66664U 25275A   26080.84027524  .00015204  00000+0  28910-3 0  9991
2 66664  51.6344  12.2940 0006178 217.6452 142.4104 15.48434052557717
